QIANFAN-69              
1 62799U 25016Q   26063.46423127  .00000080  00000+0  10495-3 0  9992
2 62799  88.9667  94.4936 0017935 107.5904 252.7207 13.51005248 58316
QIANFAN-70              
1 62800U 25016R   26063.48064234  .00000049  00000+0  56361-4 0  9995
2 62800  88.9689  94.6478 0017568  99.0948 261.2192 13.50996982 58277
QIANFAN-71              
1 62801U 25016S   26063.47647097  .00000060  00000+0  73539-4 0  9998
2 62801  88.9682  94.6227 0017821 110.7113 249.5950 13.50996537 58277
QIANFAN-72              
1 62802U 25016T   26063.49293854  .00000046  00000+0  51673-4 0  9998
2 62802  88.9673  94.6264 0021010 117.4573 242.8717 13.50996189 58267
QIANFAN-73              
1 63159U 25046A   26063.44573240  .00000192  00000+0  27822-3 0  9992
2 63159  88.9762 311.5850 0013141 246.8472 113.1295 13.50998056 58441
QIANFAN-74              
1 63160U 25046B   26063.50339669  .00000217  00000+0  31802-3 0  9997
2 63160  88.9762 311.4678 0001895  77.9462 282.1902 13.50997912 58515
QIANFAN-75              
1 63161U 25046C   26063.49053424  .00000221  00000+0  32418-3 0  9997
2 63161  88.9764 311.7039 0014325 250.4310 109.5295 13.51001697 58383
QIANFAN-76              
1 63162U 25046D   26063.48687227  .00000241  00000+0  35403-3 0  9990
2 63162  88.9763 311.6843 0011873 251.0631 108.9233 13.51014156 58393
QIANFAN-77              
1 63163U 25046E   26063.46225936  .00000479  00000+0  33886-3 0  9990
2 63163  88.9759 309.0224 0014349 178.1251 181.9982 13.96173851 59852
QIANFAN-78              
1 63164U 25046F   26063.45396630  .00000227  00000+0  33290-3 0  9990
2 63164  88.9762 311.5510 0013193 253.9578 106.0120 13.50998177 58467
QIANFAN-79              
1 63165U 25046G   26063.48291730  .00000218  00000+0  31958-3 0  9998
2 63165  88.9766 311.6587 0013053 252.0734 107.8994 13.51008361 58417
QIANFAN-80              
1 63166U 25046H   26063.49920623  .00000206  00000+0  30018-3 0  9993
2 63166  88.9763 311.3617 0011886 256.8156 103.1670 13.50997958 58573
QIANFAN-81              
1 63167U 25046J   26063.47734735  .00000191  00000+0  27664-3 0  9995
2 63167  88.9763 311.4317 0012952 244.4464 115.5348 13.50983796 58521
QIANFAN-82              
1 63168U 25046K   26063.51159358  .00000203  00000+0  29569-3 0  9993
2 63168  88.9763 311.4722 0011014 252.3389 107.6559 13.50999340 58511
QIANFAN-83              
1 63169U 25046L   26063.46621787  .00000276  00000+0  34244-3 0  9994
2 63169  88.9763 311.0927 0012421 230.1987 129.8078 13.62020430 58729
QIANFAN-84              
1 63170U 25046M   26063.46532492 -.00000082  00000+0 -14521-3 0  9993
2 63170  88.9761 311.6090 0014018 248.7119 111.2535 13.50961128 58438
QIANFAN-85              
1 63171U 25046N   26063.46220065  .00000213  00000+0  31151-3 0  9996
2 63171  88.9762 311.4812 0011428 251.2521 108.7391 13.51002055 58503
