[{"OBJECT_NAME":"QIANFAN-69","OBJECT_ID":"2025-016Q","EPOCH":"2026-03-04T11:08:29.581728","MEAN_MOTION":13.51005248,"ECCENTRICITY":0.0017935,"INCLINATION":88.9667,"RA_OF_ASC_NODE":94.4936,"ARG_OF_PERICENTER":107.5904,"MEAN_ANOMALY":252.7207,"EPHEMERIS_TYPE":0,"CLASSIFICATION_TYPE":"U","NORAD_CAT_ID":62799,"ELEMENT_SET_NO":999,"REV_AT_EPOCH":5831,"BSTAR":0.00010495,"MEAN_MOTION_DOT":8.0e-7,"MEAN_MOTION_DDOT":0},{"OBJECT_NAME":"QIANFAN-70","OBJECT_ID":"2025-016R","EPOCH":"2026-03-04T11:32:07.498176","MEAN_MOTION":13.50996982,"ECCENTRICITY":0.0017568,"INCLINATION":88.9689,"RA_OF_ASC_NODE":94.6478,"ARG_OF_PERICENTER":99.0948,"MEAN_ANOMALY":261.2192,"EPHEMERIS_TYPE":0,"CLASSIFICATION_TYPE":"U","NORAD_CAT_ID":62800,"ELEMENT_SET_NO":999,"REV_AT_EPOCH":5827,"BSTAR":5.6361e-5,"MEAN_MOTION_DOT":4.9e-7,"MEAN_MOTION_DDOT":0},{"OBJECT_NAME":"QIANFAN-71","OBJECT_ID":"2025-016S","EPOCH":"2026-03-04T11:26:07.091808","MEAN_MOTION":13.50996537,"ECCENTRICITY":0.0017821,"INCLINATION":88.9682,"RA_OF_ASC_NODE":94.6227,"ARG_OF_PERICENTER":110.7113,"MEAN_ANOMALY":249.595,"EPHEMERIS_TYPE":0,"CLASSIFICATION_TYPE":"U","NORAD_CAT_ID":62801,"ELEMENT_SET_NO":999,"REV_AT_EPOCH":5827,"BSTAR":7.3539e-5,"MEAN_MOTION_DOT":6.0e-7,"MEAN_MOTION_DDOT":0},{"OBJECT_NAME":"QIANFAN-72","OBJECT_ID":"2025-016T","EPOCH":"2026-03-04T11:49:49.889856","MEAN_MOTION":13.50996189,"ECCENTRICITY":0.002101,"INCLINATION":88.9673,"RA_OF_ASC_NODE":94.6264,"ARG_OF_PERICENTER":117.4573,"MEAN_ANOMALY":242.8717,"EPHEMERIS_TYPE":0,"CLASSIFICATION_TYPE":"U","NORAD_CAT_ID":62802,"ELEMENT_SET_NO":999,"REV_AT_EPOCH":5826,"BSTAR":5.1673e-5,"MEAN_MOTION_DOT":4.6e-7,"MEAN_MOTION_DDOT":0},{"OBJECT_NAME":"QIANFAN-73","OBJECT_ID":"2025-046A","EPOCH":"2026-03-04T10:41:51.279360","MEAN_MOTION":13.50998056,"ECCENTRICITY":0.0013141,"INCLINATION":88.9762,"RA_OF_ASC_NODE":311.585,"ARG_OF_PERICENTER":246.8472,"MEAN_ANOMALY":113.1295,"EPHEMERIS_TYPE":0,"CLASSIFICATION_TYPE":"U","NORAD_CAT_ID":63159,"ELEMENT_SET_NO":999,"REV_AT_EPOCH":5844,"BSTAR":0.00027822,"MEAN_MOTION_DOT":1.92e-6,"MEAN_MOTION_DDOT":0},{"OBJECT_NAME":"QIANFAN-74","OBJECT_ID":"2025-046B","EPOCH":"2026-03-04T12:04:53.474016","MEAN_MOTION":13.50997912,"ECCENTRICITY":0.0001895,"INCLINATION":88.9762,"RA_OF_ASC_NODE":311.4678,"ARG_OF_PERICENTER":77.9462,"MEAN_ANOMALY":282.1902,"EPHEMERIS_TYPE":0,"CLASSIFICATION_TYPE":"U","NORAD_CAT_ID":63160,"ELEMENT_SET_NO":999,"REV_AT_EPOCH":5851,"BSTAR":0.00031802,"MEAN_MOTION_DOT":2.17e-6,"MEAN_MOTION_DDOT":0},{"OBJECT_NAME":"QIANFAN-75","OBJECT_ID":"2025-046C","EPOCH":"2026-03-04T11:46:22.158336","MEAN_MOTION":13.51001697,"ECCENTRICITY":0.0014325,"INCLINATION":88.9764,"RA_OF_ASC_NODE":311.7039,"ARG_OF_PERICENTER":250.431,"MEAN_ANOMALY":109.5295,"EPHEMERIS_TYPE":0,"CLASSIFICATION_TYPE":"U","NORAD_CAT_ID":63161,"ELEMENT_SET_NO":999,"REV_AT_EPOCH":5838,"BSTAR":0.00032418,"MEAN_MOTION_DOT":2.21e-6,"MEAN_MOTION_DDOT":0},{"OBJECT_NAME":"QIANFAN-76","OBJECT_ID":"2025-046D","EPOCH":"2026-03-04T11:41:05.764128","MEAN_MOTION":13.51014156,"ECCENTRICITY":0.0011873,"INCLINATION":88.9763,"RA_OF_ASC_NODE":311.6843,"ARG_OF_PERICENTER":251.0631,"MEAN_ANOMALY":108.9233,"EPHEMERIS_TYPE":0,"CLASSIFICATION_TYPE":"U","NORAD_CAT_ID":63162,"ELEMENT_SET_NO":999,"REV_AT_EPOCH":5839,"BSTAR":0.00035403,"MEAN_MOTION_DOT":2.41e-6,"MEAN_MOTION_DDOT":0},{"OBJECT_NAME":"QIANFAN-77","OBJECT_ID":"2025-046E","EPOCH":"2026-03-04T11:05:39.208704","MEAN_MOTION":13.96173851,"ECCENTRICITY":0.0014349,"INCLINATION":88.9759,"RA_OF_ASC_NODE":309.0224,"ARG_OF_PERICENTER":178.1251,"MEAN_ANOMALY":181.9982,"EPHEMERIS_TYPE":0,"CLASSIFICATION_TYPE":"U","NORAD_CAT_ID":63163,"ELEMENT_SET_NO":999,"REV_AT_EPOCH":5985,"BSTAR":0.00033886,"MEAN_MOTION_DOT":4.79e-6,"MEAN_MOTION_DDOT":0},{"OBJECT_NAME":"QIANFAN-78","OBJECT_ID":"2025-046F","EPOCH":"2026-03-04T10:53:42.688320","MEAN_MOTION":13.50998177,"ECCENTRICITY":0.0013193,"INCLINATION":88.9762,"RA_OF_ASC_NODE":311.551,"ARG_OF_PERICENTER":253.9578,"MEAN_ANOMALY":106.012,"EPHEMERIS_TYPE":0,"CLASSIFICATION_TYPE":"U","NORAD_CAT_ID":63164,"ELEMENT_SET_NO":999,"REV_AT_EPOCH":5846,"BSTAR":0.0003329,"MEAN_MOTION_DOT":2.27e-6,"MEAN_MOTION_DDOT":0},{"OBJECT_NAME":"QIANFAN-79","OBJECT_ID":"2025-046G","EPOCH":"2026-03-04T11:35:24.054720","MEAN_MOTION":13.51008361,"ECCENTRICITY":0.0013053,"INCLINATION":88.9766,"RA_OF_ASC_NODE":311.6587,"ARG_OF_PERICENTER":252.0734,"MEAN_ANOMALY":107.8994,"EPHEMERIS_TYPE":0,"CLASSIFICATION_TYPE":"U","NORAD_CAT_ID":63165,"ELEMENT_SET_NO":999,"REV_AT_EPOCH":5841,"BSTAR":0.00031958,"MEAN_MOTION_DOT":2.18e-6,"MEAN_MOTION_DDOT":0},{"OBJECT_NAME":"QIANFAN-80","OBJECT_ID":"2025-046H","EPOCH":"2026-03-04T11:58:51.418272","MEAN_MOTION":13.50997958,"ECCENTRICITY":0.0011886,"INCLINATION":88.9763,"RA_OF_ASC_NODE":311.3617,"ARG_OF_PERICENTER":256.8156,"MEAN_ANOMALY":103.167,"EPHEMERIS_TYPE":0,"CLASSIFICATION_TYPE":"U","NORAD_CAT_ID":63166,"ELEMENT_SET_NO":999,"REV_AT_EPOCH":5857,"BSTAR":0.00030018,"MEAN_MOTION_DOT":2.06e-6,"MEAN_MOTION_DDOT":0},{"OBJECT_NAME":"QIANFAN-81","OBJECT_ID":"2025-046J","EPOCH":"2026-03-04T11:27:22.811040","MEAN_MOTION":13.50983796,"ECCENTRICITY":0.0012952,"INCLINATION":88.9763,"RA_OF_ASC_NODE":311.4317,"ARG_OF_PERICENTER":244.4464,"MEAN_ANOMALY":115.5348,"EPHEMERIS_TYPE":0,"CLASSIFICATION_TYPE":"U","NORAD_CAT_ID":63167,"ELEMENT_SET_NO":999,"REV_AT_EPOCH":5852,"BSTAR":0.00027664,"MEAN_MOTION_DOT":1.91e-6,"MEAN_MOTION_DDOT":0},{"OBJECT_NAME":"QIANFAN-82","OBJECT_ID":"2025-046K","EPOCH":"2026-03-04T12:16:41.685312","MEAN_MOTION":13.5099934,"ECCENTRICITY":0.0011014,"INCLINATION":88.9763,"RA_OF_ASC_NODE":311.4722,"ARG_OF_PERICENTER":252.3389,"MEAN_ANOMALY":107.6559,"EPHEMERIS_TYPE":0,"CLASSIFICATION_TYPE":"U","NORAD_CAT_ID":63168,"ELEMENT_SET_NO":999,"REV_AT_EPOCH":5851,"BSTAR":0.00029569,"MEAN_MOTION_DOT":2.03e-6,"MEAN_MOTION_DDOT":0},{"OBJECT_NAME":"QIANFAN-83","OBJECT_ID":"2025-046L","EPOCH":"2026-03-04T11:11:21.223968","MEAN_MOTION":13.6202043,"ECCENTRICITY":0.0012421,"INCLINATION":88.9763,"RA_OF_ASC_NODE":311.0927,"ARG_OF_PERICENTER":230.1987,"MEAN_ANOMALY":129.8078,"EPHEMERIS_TYPE":0,"CLASSIFICATION_TYPE":"U","NORAD_CAT_ID":63169,"ELEMENT_SET_NO":999,"REV_AT_EPOCH":5872,"BSTAR":0.00034244,"MEAN_MOTION_DOT":2.76e-6,"MEAN_MOTION_DDOT":0},{"OBJECT_NAME":"QIANFAN-84","OBJECT_ID":"2025-046M","EPOCH":"2026-03-04T11:10:04.073088","MEAN_MOTION":13.50961128,"ECCENTRICITY":0.0014018,"INCLINATION":88.9761,"RA_OF_ASC_NODE":311.609,"ARG_OF_PERICENTER":248.7119,"MEAN_ANOMALY":111.2535,"EPHEMERIS_TYPE":0,"CLASSIFICATION_TYPE":"U","NORAD_CAT_ID":63170,"ELEMENT_SET_NO":999,"REV_AT_EPOCH":5843,"BSTAR":-0.00014521,"MEAN_MOTION_DOT":-8.2e-7,"MEAN_MOTION_DDOT":0},{"OBJECT_NAME":"QIANFAN-85","OBJECT_ID":"2025-046N","EPOCH":"2026-03-04T11:05:34.136160","MEAN_MOTION":13.51002055,"ECCENTRICITY":0.0011428,"INCLINATION":88.9762,"RA_OF_ASC_NODE":311.4812,"ARG_OF_PERICENTER":251.2521,"MEAN_ANOMALY":108.7391,"EPHEMERIS_TYPE":0,"CLASSIFICATION_TYPE":"U","NORAD_CAT_ID":63171,"ELEMENT_SET_NO":999,"REV_AT_EPOCH":5850,"BSTAR":0.00031151,"MEAN_MOTION_DOT":2.13e-6,"MEAN_MOTION_DDOT":0}]
